[{"OBJECT_NAME":"IRIDIUM 102","OBJECT_ID":"2017-003D","EPOCH":"2026-03-09T16:58:10.285536","MEAN_MOTION":14.3421763,"ECCENTRICITY":0.00022591,"INCLINATION":86.3971,"RA_OF_ASC_NODE":130.0382,"ARG_OF_PERICENTER":95.9369,"MEAN_ANOMALY":264.2084,"EPHEMERIS_TYPE":0,"CLASSIFICATION_TYPE":"U","NORAD_CAT_ID":41920,"ELEMENT_SET_NO":999,"REV_AT_EPOCH":47902,"BSTAR":3.634738e-6,"MEAN_MOTION_DOT":3.0e-7,"MEAN_MOTION_DDOT":0},{"OBJECT_NAME":"COSMOS 2112","OBJECT_ID":"1990-111A","EPOCH":"2026-03-09T13:39:25.694496","MEAN_MOTION":14.34286783,"ECCENTRICITY":0.0027957,"INCLINATION":74.0466,"RA_OF_ASC_NODE":127.0852,"ARG_OF_PERICENTER":338.8401,"MEAN_ANOMALY":21.1592,"EPHEMERIS_TYPE":0,"CLASSIFICATION_TYPE":"U","NORAD_CAT_ID":21014,"ELEMENT_SET_NO":999,"REV_AT_EPOCH":84299,"BSTAR":6.2862e-5,"MEAN_MOTION_DOT":1.51e-6,"MEAN_MOTION_DDOT":0}]
